NORAD_CAT_ID,OBJECT_NAME,OBJECT_TYPE,EPOCH,MEAN_MOTION,ECCENTRICITY,INCLINATION,RA_OF_ASC_NODE,ARG_OF_PERICENTER,MEAN_ANOMALY,BSTAR,MEAN_MOTION_DOT,MEAN_MOTION_DDOT,TLE_LINE0,TLE_LINE1,TLE_LINE2,SEMIMAJOR_AXIS,PERIOD,APOGEE,PERIGEE,DECAYED
49177.0,STARLINK-3103,PAYLOAD,2021-12-04 06:00:00,15.69778015,0.0003461,69.9997,258.7473,282.9647,182.6645,-0.0003844,-0.00045906,0.0,0 STARLINK-3103,1 49177U 21082AZ  21338.25001157 -.00045906  00000-0 -38440-3 0  9997,2 49177  69.9997 258.7473 0003461 282.9647 182.6645 15.69778015 14036,6737.669,91.733,361.866,357.202,0.0
49177.0,STARLINK-3103,PAYLOAD,2021-12-04 20:00:01,15.69768259,0.00035,70.0001,257.1059,273.6212,247.5027,0.00011851,0.0001396999999999,0.0,0 STARLINK-3103,1 49177U 21082AZ  21338.83334491  .00013970  00000-0  11851-3 0  9992,2 49177  70.0001 257.1059 0003500 273.6212 247.5027 15.69768259 14121,6737.696999999999,91.733,361.92,357.204,0.0
49177.0,STARLINK-3103,PAYLOAD,2021-12-05 06:00:02,15.69346849,0.0003213,69.9997,255.9405,275.6655,79.4777,0.0047864,0.00604296,0.0,0 STARLINK-3103,1 49177U 21082AZ  21339.25002315  .00604296  00000-0  47864-2 0  9995,2 49177  69.9997 255.9405 0003213 275.6655  79.4777 15.69346849 14195,6738.903,91.758,362.9330000000001,358.603,0.0
49177.0,STARLINK-3103,PAYLOAD,2021-12-05 14:00:01,15.69754726,0.0003521,69.9994,254.9976,274.0295,164.1549,0.00021026,0.00024969,0.0,0 STARLINK-3103,1 49177U 21082AZ  21339.58334491  .00024969  00000-0  21026-3 0  9990,2 49177  69.9994 254.9976 0003521 274.0295 164.1549 15.69754726  3698,6737.736,91.734,361.973,357.228,0.0
49177.0,STARLINK-3103,PAYLOAD,2021-12-05 22:00:00,15.69763476,0.0003417,69.9995,254.0606,275.2825,246.0453,-0.00043362,-0.00051689,0.0,0 STARLINK-3103,1 49177U 21082AZ  21339.91667824 -.00051689  00000-0 -43362-3 0  9994,2 49177  69.9995 254.0606 0003417 275.2825 246.0453 15.69763476 14290,6737.7109999999975,91.734,361.878,357.273,0.0
49177.0,STARLINK-3103,PAYLOAD,2021-12-06 14:00:01,15.69736799,0.0003333,69.9992,252.1869,274.0438,53.6032,0.00018815,0.00022296,0.0,0 STARLINK-3103,1 49177U 21082AZ  21340.58335648  .00022296  00000-0  18815-3 0  9990,2 49177  69.9992 252.1869 0003333 274.0438  53.6032 15.69736799 14407,6737.7869999999975,91.735,361.898,357.406,0.0
49177.0,STARLINK-3103,PAYLOAD,2021-12-06 22:00:00,15.69749505,0.0003551,69.9994,251.2503,274.7862,135.9146,-0.00049506,-0.00058901,0.0,0 STARLINK-3103,1 49177U 21082AZ  21340.91667824 -.00058901  00000-0 -49506-3 0  9996,2 49177  69.9994 251.2503 0003551 274.7862 135.9146 15.69749505  3692,6737.751,91.734,362.008,357.223,0.0
49177.0,STARLINK-3103,PAYLOAD,2021-12-07 06:00:00,15.69713154,0.0003608,69.9987,250.3133,279.1389,214.6614,0.00024045,0.00028548,0.0,0 STARLINK-3103,1 49177U 21082AZ  21341.25001157  .00028548  00000-0  24045-3 0  9998,2 49177  69.9987 250.3133 0003608 279.1389 214.6614 15.69713154 14507,6737.855,91.737,362.151,357.289,0.0
49177.0,STARLINK-3103,PAYLOAD,2021-12-07 14:00:01,15.69692995,0.0003599,69.9986,249.3763,272.625,304.2817,0.00068607,0.00082307,0.0,0 STARLINK-3103,1 49177U 21082AZ  21341.58334491  .00082307  00000-0  68607-3 0  9999,2 49177  69.9986 249.3763 0003599 272.6250 304.2817 15.69692995  3684,6737.9119999999975,91.738,362.202,357.352,0.0
49177.0,STARLINK-3103,PAYLOAD,2021-12-07 22:00:00,15.69761348,0.0003602,69.9987,248.4394,274.1367,25.8592,-0.00023465,-0.00028146,0.0,0 STARLINK-3103,1 49177U 21082AZ  21341.91667824 -.00028146  00000-0 -23465-3 0  9991,2 49177  69.9987 248.4394 0003602 274.1367  25.8592 15.69761348  3681,6737.717,91.734,362.009,357.155,0.0
49177.0,STARLINK-3103,PAYLOAD,2021-12-08 06:00:02,15.69752591,0.0003568,69.9983,247.5023,279.4189,103.7683,0.00017182,0.00020352,0.0,0 STARLINK-3103,1 49177U 21082AZ  21342.25002315  .00020352  00000-0  17182-3 0  9995,2 49177  69.9983 247.5023 0003568 279.4189 103.7683 15.69752591 14664,6737.7419999999975,91.734,362.011,357.20300000000015,0.0
49177.0,STARLINK-3103,PAYLOAD,2021-12-08 14:00:01,15.69722915,0.0003508,69.9985,246.5656,272.307,193.9656,0.00076769,0.00092348,0.0,0 STARLINK-3103,1 49177U 21082AZ  21342.58334491  .00092348  00000-0  76769-3 0  9994,2 49177  69.9985 246.5656 0003508 272.3070 193.9656 15.69722915  3680,6737.8269999999975,91.736,362.055,357.32800000000015,0.0
49177.0,STARLINK-3103,PAYLOAD,2021-12-08 22:00:00,15.69792277,0.0003533,69.9989,245.6287,274.6804,274.7195,-0.0002057,-0.0002474,0.0,0 STARLINK-3103,1 49177U 21082AZ  21342.91667824 -.00024740  00000-0 -20570-3 0  9992,2 49177  69.9989 245.6287 0003533 274.6804 274.7195 15.69792277  3686,6737.628000000002,91.732,361.874,357.11300000000006,0.0
49177.0,STARLINK-3103,PAYLOAD,2021-12-09 06:00:00,15.69796942,0.0003502,69.9983,244.6916,278.2279,354.3336,-0.00078359,-0.00092912,0.0,0 STARLINK-3103,1 49177U 21082AZ  21343.25001157 -.00092912  00000-0 -78359-3 0  9995,2 49177  69.9983 244.6916 0003502 278.2279 354.3336 15.69796942 14823,6737.615,91.732,361.839,357.12,0.0
49177.0,STARLINK-3103,PAYLOAD,2021-12-09 20:08:11,15.69751586,0.0003356,69.9984,243.0358,273.4603,86.6209,-3.994e-05,-4.978e-05,0.0,0 STARLINK-3103,1 49177U 21082AZ  21343.83901623 -.00004978  00000-0 -39940-4 0  9995,2 49177  69.9984 243.0358 0003356 273.4603  86.6209 15.69751586 14911,6737.745,91.734,361.871,357.349,0.0
49177.0,STARLINK-3103,PAYLOAD,2021-12-10 14:00:01,15.69715264,0.0003267,69.9986,240.9436,271.7606,333.3075,0.00073717,0.00088597,0.0,0 STARLINK-3103,1 49177U 21082AZ  21344.58334491  .00088597  00000-0  73717-3 0  9997,2 49177  69.9986 240.9436 0003267 271.7606 333.3075 15.69715264 15031,6737.849,91.736,361.915,357.51199999999994,0.0
49177.0,STARLINK-3103,PAYLOAD,2021-12-10 22:00:00,15.69779893,0.0003332,69.999,240.0067,274.3689,53.8184,-0.00021467,-0.00025792,0.0,0 STARLINK-3103,1 49177U 21082AZ  21344.91667824 -.00025792  00000-0 -21467-3 0  9998,2 49177  69.9990 240.0067 0003332 274.3689  53.8184 15.69779893  3681,6737.6640000000025,91.733,361.774,357.284,0.0
49177.0,STARLINK-3103,PAYLOAD,2021-12-11 06:00:00,15.69806837,0.0003486,69.9986,239.0696,277.9973,133.3341,-0.00090413,-0.00107037,0.0,0 STARLINK-3103,1 49177U 21082AZ  21345.25001157 -.00107037  00000-0 -90413-3 0  9997,2 49177  69.9986 239.0696 0003486 277.9973 133.3341 15.69806837 15138,6737.587,91.731,361.8,357.103,0.0
49177.0,STARLINK-3103,PAYLOAD,2021-12-11 14:00:01,15.69684291,0.0003602,69.9986,238.1326,270.0215,224.4812,0.00072621,0.00087154,0.0,0 STARLINK-3103,1 49177U 21082AZ  21345.58334491  .00087154  00000-0  72621-3 0  9999,2 49177  69.9986 238.1326 0003602 270.0215 224.4812 15.69684291  3681,6737.937,91.738,362.229,357.375,0.0
49177.0,STARLINK-3103,PAYLOAD,2021-12-11 22:00:00,15.69738649,0.0003602,69.9988,237.1957,273.8582,303.7314,-8.719e-05,-0.00010603,0.0,0 STARLINK-3103,1 49177U 21082AZ  21345.91667824 -.00010603  00000-0 -87190-4 0  9990,2 49177  69.9988 237.1957 0003602 273.8582 303.7314 15.69738649 15240,6737.781999999997,91.735,362.074,357.22,0.0
49177.0,STARLINK-3103,PAYLOAD,2021-12-12 14:00:01,15.69715803,0.0003517,69.9989,235.3216,270.1396,113.6993,0.00073955,0.00088892,0.0,0 STARLINK-3103,1 49177U 21082AZ  21346.58334491  .00088892  00000-0  73955-3 0  9991,2 49177  69.9989 235.3216 0003517 270.1396 113.6993 15.69715803 15346,6737.847,91.736,362.082,357.342,0.0
49177.0,STARLINK-3103,PAYLOAD,2021-12-12 22:00:01,15.69772418,0.000356,69.9994,234.3846,273.3519,193.6755,-0.00012449,-0.00015062,0.0,0 STARLINK-3103,1 49177U 21082AZ  21346.91668981 -.00015062  00000-0 -12449-3 0  9994,2 49177  69.9994 234.3846 0003560 273.3519 193.6755 15.69772418 15394,6737.685,91.733,361.949,357.152,0.0
49177.0,STARLINK-3103,PAYLOAD,2021-12-13 14:00:01,15.6968783,0.0003318,69.999,232.5107,268.9762,4.2886,0.00070659,0.00084778,0.0,0 STARLINK-3103,1 49177U 21082AZ  21347.58334491  .00084778  00000-0  70659-3 0  9999,2 49177  69.9990 232.5107 0003318 268.9762   4.2886 15.69687830  3674,6737.927,91.738,362.028,357.557,0.0
49177.0,STARLINK-3103,PAYLOAD,2021-12-13 22:00:00,15.69739799,0.0003311,69.999,231.5738,273.1548,83.2011,-0.00011041,-0.00013366,0.0,0 STARLINK-3103,1 49177U 21082AZ  21347.91667824 -.00013366  00000-0 -11041-3 0  9992,2 49177  69.9990 231.5738 0003311 273.1548  83.2011 15.69739799  3697,6737.778,91.735,361.874,357.413,0.0
49177.0,STARLINK-3103,PAYLOAD,2021-12-14 06:00:02,15.69760581,0.0003263,69.9988,230.6367,276.3892,163.1361,-0.00021839,-0.00026213,0.0,0 STARLINK-3103,1 49177U 21082AZ  21348.25002315 -.00026213  00000-0 -21839-3 0  9999,2 49177  69.9988 230.6367 0003263 276.3892 163.1361 15.69760581 15608,6737.719,91.734,361.783,357.385,0.0
49177.0,STARLINK-3103,PAYLOAD,2021-12-14 14:00:01,15.69307067,0.0003319,69.9994,229.706,273.1086,249.5527,0.0048133999999999,0.0060691,0.0,0 STARLINK-3103,1 49177U 21082AZ  21348.58334491  .00606910  00000-0  48134-2 0  9990,2 49177  69.9994 229.7060 0003319 273.1086 249.5527 15.69307067 15650,6739.017,91.76,363.119,358.645,0.0
49177.0,STARLINK-3103,PAYLOAD,2021-12-14 22:00:00,15.69763083,0.0003312,69.9995,228.7627,273.396,332.3274,4.2033e-05,4.811e-05,0.0,0 STARLINK-3103,1 49177U 21082AZ  21348.91667824  .00004811  00000-0  42033-4 0  9992,2 49177  69.9995 228.7627 0003312 273.3960 332.3274 15.69763083 15716,6737.712,91.734,361.8080000000001,357.345,0.0
49177.0,STARLINK-3103,PAYLOAD,2021-12-15 06:00:00,15.69711314,0.0003418,69.9997,227.8337,269.3404,59.2937,0.0005212999999999,0.00062385,0.0,0 STARLINK-3103,1 49177U 21082AZ  21349.25001157  .00062385  00000-0  52130-3 0  9999,2 49177  69.9997 227.8337 0003418 269.3404  59.2937 15.69711314 15767,6737.86,91.737,362.028,357.422,0.0
49177.0,STARLINK-3103,PAYLOAD,2021-12-15 14:22:36,15.69705816,0.000347,69.9991,226.8449,267.9973,232.5934,0.0005484,0.00065651,0.0,0 STARLINK-3103,1 49177U 21082AZ  21349.59902778  .00065651  00000-0  54840-3 0  9994,2 49177  69.9991 226.8449 0003470 267.9973 232.5934 15.69705816 15816,6737.876,91.737,362.079,357.403,0.0
